{
  "type": "FeatureCollection",
  "name": "fvc_aoi_candidates_v1",
  "features": [
    {
      "type": "Feature",
      "properties": {
        "aoi_id": "AOI-00",
        "role": "original",
        "area_km2": 583.1314166091697,
        "expected_5km_block_count": 39,
        "geometry_version": "aoi00-immutable-v1",
        "eligibility": true,
        "exclusion_reason": "",
        "selection_status": "ORIGINAL",
        "final_aoi_id": "AOI-00",
        "centroid_lon": 99.5126037664068,
        "centroid_lat": 38.038743681478,
        "elevation_median_m": 3865.489501953125,
        "elevation_iqr_m": 110.48095703125,
        "elevation_range_m": 289.755126953125,
        "slope_median_degrees": 1.6944177150726318,
        "terrain_ruggedness_m": 1.56591796875,
        "dem_items": 2,
        "tree_fraction": 0.0,
        "shrub_fraction": 0.0,
        "grassland_fraction": 0.9496844319775596,
        "cropland_fraction": 0.0,
        "built_fraction": 0.0002990677336853,
        "bare_sparse_fraction": 0.0349187360778813,
        "snow_ice_fraction": 5.1563402359541295e-05,
        "water_fraction": 0.0096217308802904,
        "wetland_fraction": 0.000670324230674,
        "mangrove_fraction": 0.0,
        "moss_lichen_fraction": 0.0047541456975497,
        "vegetation_fraction": 0.9551089019057832,
        "worldcover_items": 1,
        "historical_ndvi_median": 0.7000000000000001,
        "historical_ndvi_iqr": 0.041475,
        "historical_ndvi_years": 4,
        "historical_ndvi_items": 4,
        "environmental_distance_to_AOI00": 0.0,
        "geographic_distance_to_AOI00_km": 1.2021775562272715e-13,
        "minimum_environmental_distance_to_other_candidates": 1.8367363555483969,
        "minimum_geographic_distance_to_other_aois_km": 176.71243652304796,
        "sentinel2_2021_2025_availability": "2021:PARTIAL:32;2022:READY:34;2023:READY:64;2024:READY:32;2025:READY:42",
        "landsat_2021_2025_availability": "2021:PARTIAL:15;2022:READY:20;2023:READY:30;2024:READY:29;2025:READY:30",
        "modis_2021_2025_availability": "2021:PARTIAL:22;2022:READY:22;2023:READY:22;2024:READY:22;2025:READY:8",
        "fcover_2021_2025_availability": "2021:PARTIAL:3;2022:READY:3;2023:READY:3;2024:READY:3;2025:READY:3"
      },
      "geometry": {
        "type": "Polygon",
        "coordinates": [
          [
            [
              99.32755692497923,
              38.08879514923048
            ],
            [
              99.33280671460497,
              38.090867890616025
            ],
            [
              99.33739867334856,
              38.10207001914348
            ],
            [
              99.36171599885606,
              38.12722340862398
            ],
            [
              99.37431342258301,
              38.12571043466963
            ],
            [
              99.40271088763454,
              38.1304367230677
            ],
            [
              99.42780942106211,
              38.13983674143025
            ],
            [
              99.43972825283157,
              38.14429813462071
            ],
            [
              99.4600162182181,
              38.15078746831142
            ],
            [
              99.48315515815824,
              38.14119282252872
            ],
            [
              99.49551077323596,
              38.13238829481119
            ],
            [
              99.50250639619473,
              38.12740184121236
            ],
            [
              99.52398842407233,
              38.11550202932829
            ],
            [
              99.57052092633978,
              38.1134541431031
            ],
            [
              99.59091303076197,
              38.121830045935944
            ],
            [
              99.61227456523129,
              38.119455976614404
            ],
            [
              99.63589595764346,
              38.09837289181187
            ],
            [
              99.66716244715323,
              38.088127076153185
            ],
            [
              99.70202126604723,
              38.08739483705618
            ],
            [
              99.71325835425269,
              38.08799188054587
            ],
            [
              99.72048401146787,
              38.068266262016074
            ],
            [
              99.69791719430569,
              38.05429133275853
            ],
            [
              99.69121516994458,
              38.045676593697735
            ],
            [
              99.68519126807453,
              38.02710914497309
            ],
            [
              99.69276856067631,
              38.0127215536664
            ],
            [
              99.6855702761685,
              37.95452667384872
            ],
            [
              99.67529051242936,
              37.949704948565234
            ],
            [
              99.6451120202546,
              37.93884380045216
            ],
            [
              99.63999532757751,
              37.93468083489816
            ],
            [
              99.62135842828016,
              37.94458255406483
            ],
            [
              99.57661001679296,
              37.949725190129904
            ],
            [
              99.53840407782413,
              37.94179278147506
            ],
            [
              99.52529950257068,
              37.93611550909326
            ],
            [
              99.50373206724666,
              37.93762532675436
            ],
            [
              99.49802469535717,
              37.95303477204951
            ],
            [
              99.47970287578651,
              37.96601749262859
            ],
            [
              99.45311229791417,
              37.977265632609274
            ],
            [
              99.43035269849112,
              37.97162263145757
            ],
            [
              99.41355003777734,
              37.96191613734618
            ],
            [
              99.3889470003647,
              37.960608136011736
            ],
            [
              99.36876006914301,
              37.96659738332567
            ],
            [
              99.36357425304828,
              37.97648985062072
            ],
            [
              99.3435359951972,
              37.98598413453984
            ],
            [
              99.33119561791689,
              37.98075590139941
            ],
            [
              99.31645845040727,
              37.99838716652157
            ],
            [
              99.3312124804353,
              38.00815863466397
            ],
            [
              99.33171733100625,
              38.04288493252576
            ],
            [
              99.32979890764136,
              38.0690861893151
            ],
            [
              99.32755692497923,
              38.08879514923048
            ]
          ]
        ]
      }
    },
    {
      "type": "Feature",
      "properties": {
        "aoi_id": "AOI-C01",
        "role": "candidate",
        "centroid_lon": 101.40000048043044,
        "centroid_lat": 37.50000021473519,
        "area_km2": 583.1314165790752,
        "expected_5km_block_count": 39,
        "geometry_version": "translated-aoi00-shape-v1",
        "eligibility": false,
        "exclusion_reason": "cropland_fraction>0.2;vegetation_plus_bare_below_minimum",
        "selection_status": "NOT_SELECTED",
        "final_aoi_id": "",
        "elevation_median_m": 3160.934326171875,
        "elevation_iqr_m": 233.640869140625,
        "elevation_range_m": 571.350341796875,
        "slope_median_degrees": 5.622920989990234,
        "terrain_ruggedness_m": 5.0701904296875,
        "dem_items": 1,
        "tree_fraction": 0.0019347309802636,
        "shrub_fraction": 0.0,
        "grassland_fraction": 0.6451867168946033,
        "cropland_fraction": 0.2756019163049709,
        "built_fraction": 0.0108611088362951,
        "bare_sparse_fraction": 0.0293280648595528,
        "snow_ice_fraction": 0.0,
        "water_fraction": 0.0328597166489231,
        "wetland_fraction": 0.0018733109491442,
        "mangrove_fraction": 0.0,
        "moss_lichen_fraction": 0.0023544345262468,
        "vegetation_fraction": 0.651349193350258,
        "worldcover_items": 1,
        "historical_ndvi_median": 0.760275,
        "historical_ndvi_iqr": 0.0186875,
        "historical_ndvi_years": 4,
        "historical_ndvi_items": 4,
        "environmental_distance_to_AOI00": 4.264901612655169,
        "geographic_distance_to_AOI00_km": 176.71243652304796,
        "minimum_environmental_distance_to_other_candidates": 4.3642317266820445,
        "minimum_geographic_distance_to_other_aois_km": 176.71243652304796,
        "sentinel2_2021_2025_availability": "2021:PARTIAL:80;2022:PARTIAL:99;2023:PARTIAL:152;2024:PARTIAL:83;2025:PARTIAL:105",
        "landsat_2021_2025_availability": "2021:PARTIAL:10;2022:PARTIAL:17;2023:PARTIAL:20;2024:PARTIAL:19;2025:PARTIAL:21",
        "modis_2021_2025_availability": "2021:PARTIAL:44;2022:PARTIAL:44;2023:PARTIAL:44;2024:PARTIAL:44;2025:PARTIAL:12",
        "fcover_2021_2025_availability": "2021:PARTIAL:3;2022:PARTIAL:3;2023:PARTIAL:3;2024:PARTIAL:3;2025:PARTIAL:3"
      },
      "geometry": {
        "type": "Polygon",
        "coordinates": [
          [
            [
              101.21629323136816,
              37.55005885335357
            ],
            [
              101.22150509992099,
              37.552131628372045
            ],
            [
              101.22606431184231,
              37.56333465106543
            ],
            [
              101.25020643859267,
              37.58848969999277
            ],
            [
              101.2627124542778,
              37.58697628971501
            ],
            [
              101.29090413330215,
              37.59170243603944
            ],
            [
              101.31582084374774,
              37.601102917655645
            ],
            [
              101.32765328810473,
              37.60556456666869
            ],
            [
              101.34779412807231,
              37.61205428785695
            ],
            [
              101.37076505397613,
              37.60245860674568
            ],
            [
              101.38303098467632,
              37.593653224326815
            ],
            [
              101.38997585432816,
              37.58866629775896
            ],
            [
              101.41130213311942,
              37.576765396583475
            ],
            [
              101.45749736375268,
              37.5747175859089
            ],
            [
              101.47774149143527,
              37.58309448391333
            ],
            [
              101.49894820800523,
              37.5807205073503
            ],
            [
              101.52239902603911,
              37.55963591902039
            ],
            [
              101.5534394234467,
              37.54938987333402
            ],
            [
              101.58804584436378,
              37.54865854644799
            ],
            [
              101.59920152909251,
              37.54925600269904
            ],
            [
              101.6063759254579,
              37.52952881660412
            ],
            [
              101.58397308365666,
              37.51555188141526
            ],
            [
              101.57731993290645,
              37.506936153434864
            ],
            [
              101.57134041815497,
              37.488366830060016
            ],
            [
              101.57886363056998,
              37.47397813853585
            ],
            [
              101.57171993818147,
              37.41577771960625
            ],
            [
              101.56151446351213,
              37.41095527086914
            ],
            [
              101.53155380222596,
              37.40009240039601
            ],
            [
              101.5264741019348,
              37.39592894498982
            ],
            [
              101.50797114481506,
              37.40583121145225
            ],
            [
              101.46354503552818,
              37.410973687035586
            ],
            [
              101.42561445298533,
              37.40304027163324
            ],
            [
              101.41260429816487,
              37.39736243812837
            ],
            [
              101.39119220059163,
              37.39887238731693
            ],
            [
              101.38552599500582,
              37.4142832548004
            ],
            [
              101.3673363246095,
              37.42726723559605
            ],
            [
              101.3409376377695,
              37.43851660664151
            ],
            [
              101.31834208093962,
              37.43287335205223
            ],
            [
              101.30166034276044,
              37.4231662176495
            ],
            [
              101.27723462483654,
              37.421858544071675
            ],
            [
              101.25719343554495,
              37.42784878107394
            ],
            [
              101.25204539133742,
              37.437742278622565
            ],
            [
              101.23215207849019,
              37.44723795298307
            ],
            [
              101.21990049311154,
              37.442009594133914
            ],
            [
              101.20527053154372,
              37.45964292909387
            ],
            [
              101.21991852110185,
              37.4694148376247
            ],
            [
              101.22042135412785,
              37.504144303170065
            ],
            [
              101.21851804302626,
              37.53034801891453
            ],
            [
              101.21629323136816,
              37.55005885335357
            ]
          ]
        ]
      }
    },
    {
      "type": "Feature",
      "properties": {
        "aoi_id": "AOI-C02",
        "role": "candidate",
        "centroid_lon": 100.10000158457063,
        "centroid_lat": 36.20000072172151,
        "area_km2": 583.1314165069136,
        "expected_5km_block_count": 39,
        "geometry_version": "translated-aoi00-shape-v1",
        "eligibility": true,
        "exclusion_reason": "",
        "selection_status": "NOT_SELECTED",
        "final_aoi_id": "",
        "elevation_median_m": 2945.354736328125,
        "elevation_iqr_m": 111.1767578125,
        "elevation_range_m": 216.93115234375,
        "slope_median_degrees": 0.96826434135437,
        "terrain_ruggedness_m": 0.9886474609375,
        "dem_items": 2,
        "tree_fraction": 0.0,
        "shrub_fraction": 0.0,
        "grassland_fraction": 0.4384599137020609,
        "cropland_fraction": 0.0757772346438952,
        "built_fraction": 0.0002313348018064,
        "bare_sparse_fraction": 0.4767407943835933,
        "snow_ice_fraction": 0.0,
        "water_fraction": 0.0084588073182261,
        "wetland_fraction": 0.0003319151504179,
        "mangrove_fraction": 0.0,
        "moss_lichen_fraction": 0.0,
        "vegetation_fraction": 0.4387918288524788,
        "worldcover_items": 1,
        "historical_ndvi_median": 0.21715,
        "historical_ndvi_iqr": 0.079425,
        "historical_ndvi_years": 4,
        "historical_ndvi_items": 4,
        "environmental_distance_to_AOI00": 4.093957531002912,
        "geographic_distance_to_AOI00_km": 210.63350348532083,
        "minimum_environmental_distance_to_other_candidates": 4.044651327748835,
        "minimum_geographic_distance_to_other_aois_km": 123.31729729253041,
        "sentinel2_2021_2025_availability": "2021:PARTIAL:128;2022:PARTIAL:156;2023:PARTIAL:244;2024:PARTIAL:132;2025:PARTIAL:168",
        "landsat_2021_2025_availability": "2021:PARTIAL:5;2022:PARTIAL:7;2023:PARTIAL:10;2024:PARTIAL:10;2025:PARTIAL:10",
        "modis_2021_2025_availability": "2021:PARTIAL:44;2022:PARTIAL:44;2023:PARTIAL:44;2024:PARTIAL:44;2025:PARTIAL:12",
        "fcover_2021_2025_availability": "2021:PARTIAL:3;2022:PARTIAL:3;2023:PARTIAL:3;2024:PARTIAL:3;2025:PARTIAL:3"
      },
      "geometry": {
        "type": "Polygon",
        "coordinates": [
          [
            [
              99.91938325936034,
              36.25007641762047
            ],
            [
              99.92450768626667,
              36.2521492787298
            ],
            [
              99.92899138467735,
              36.26335444496583
            ],
            [
              99.95272951982521,
              36.28851348664455
            ],
            [
              99.96502476212258,
              36.28699904348845
            ],
            [
              99.99274192714851,
              36.291724870875406
            ],
            [
              100.01723937867062,
              36.30112647511631
            ],
            [
              100.02887262580339,
              36.30558874165686
            ],
            [
              100.04867421584761,
              36.312079397340504
            ],
            [
              100.07125772731925,
              36.302481245296555
            ],
            [
              100.08331685946101,
              36.29367382010059
            ],
            [
              100.09014469950635,
              36.28868576274233
            ],
            [
              100.11111184321513,
              36.27678225589577
            ],
            [
              100.15652937302525,
              36.274734616383846
            ],
            [
              100.1764322884701,
              36.28311388659153
            ],
            [
              100.19728201665964,
              36.28074012063719
            ],
            [
              100.2203395094798,
              36.259651920371255
            ],
            [
              100.25085856633368,
              36.249405298846945
            ],
            [
              100.28488299087458,
              36.248676118494025
            ],
            [
              100.29585097020788,
              36.24927454908934
            ],
            [
              100.30290715815894,
              36.229543605003926
            ],
            [
              100.28088241779759,
              36.215561898155634
            ],
            [
              100.27434196067684,
              36.20694381208986
            ],
            [
              100.26846479132362,
              36.188370011301515
            ],
            [
              100.27586329647535,
              36.173978680633354
            ],
            [
              100.26884546941324,
              36.115765022031816
            ],
            [
              100.25881129656528,
              36.11094085316412
            ],
            [
              100.22935292928773,
              36.10007388950259
            ],
            [
              100.22435852895501,
              36.095909266485855
            ],
            [
              100.20616443156676,
              36.105812854499526
            ],
            [
              100.16248152007176,
              36.11095496866601
            ],
            [
              100.12518588163444,
              36.10301915556617
            ],
            [
              100.1123934509657,
              36.09733998160809
            ],
            [
              100.09133954722772,
              36.09885024557905
            ],
            [
              100.08576826675883,
              36.11426451383055
            ],
            [
              100.06788331831687,
              36.127251505954945
            ],
            [
              100.041927111122,
              36.13850381403766
            ],
            [
              100.01970981989655,
              36.132859943961904
            ],
            [
              100.00330691810721,
              36.123151269435525
            ],
            [
              99.97929008108741,
              36.12184436380881
            ],
            [
              99.9595849563618,
              36.1278369520101
            ],
            [
              99.95452400763466,
              36.13773290903546
            ],
            [
              99.93496491987287,
              36.147231890191854
            ],
            [
              99.92291808078357,
              36.14200321813915
            ],
            [
              99.90853531860886,
              36.15964148706149
            ],
            [
              99.9229387873278,
              36.169414465047275
            ],
            [
              99.92343695667067,
              36.204151507171595
            ],
            [
              99.92156848373165,
              36.230361102086306
            ],
            [
              99.91938325936034,
              36.25007641762047
            ]
          ]
        ]
      }
    },
    {
      "type": "Feature",
      "properties": {
        "aoi_id": "AOI-C03",
        "role": "candidate",
        "centroid_lon": 98.40000158457065,
        "centroid_lat": 36.2000007217215,
        "area_km2": 583.1314165069764,
        "expected_5km_block_count": 39,
        "geometry_version": "translated-aoi00-shape-v1",
        "eligibility": true,
        "exclusion_reason": "",
        "selection_status": "NOT_SELECTED",
        "final_aoi_id": "",
        "elevation_median_m": 3715.70947265625,
        "elevation_iqr_m": 330.570068359375,
        "elevation_range_m": 1043.1376953125,
        "slope_median_degrees": 11.426450729370115,
        "terrain_ruggedness_m": 11.656494140625,
        "dem_items": 1,
        "tree_fraction": 9.052231375033946e-05,
        "shrub_fraction": 0.0,
        "grassland_fraction": 0.787453607314203,
        "cropland_fraction": 0.0004827856733351,
        "built_fraction": 0.0,
        "bare_sparse_fraction": 0.1978214296490751,
        "snow_ice_fraction": 0.0,
        "water_fraction": 0.0029369461794554,
        "wetland_fraction": 0.0,
        "mangrove_fraction": 0.0,
        "moss_lichen_fraction": 0.0112147088701809,
        "vegetation_fraction": 0.7987588384981342,
        "worldcover_items": 1,
        "historical_ndvi_median": 0.35625,
        "historical_ndvi_iqr": 0.0340249999999999,
        "historical_ndvi_years": 4,
        "historical_ndvi_items": 4,
        "environmental_distance_to_AOI00": 3.3253979584796856,
        "geographic_distance_to_AOI00_km": 226.75248859440552,
        "minimum_environmental_distance_to_other_candidates": 1.3613529330769225,
        "minimum_geographic_distance_to_other_aois_km": 121.65038019347715,
        "sentinel2_2021_2025_availability": "2021:PARTIAL:64;2022:PARTIAL:72;2023:PARTIAL:124;2024:PARTIAL:64;2025:PARTIAL:82",
        "landsat_2021_2025_availability": "2021:PARTIAL:5;2022:PARTIAL:8;2023:PARTIAL:10;2024:PARTIAL:10;2025:PARTIAL:10",
        "modis_2021_2025_availability": "2021:PARTIAL:22;2022:PARTIAL:22;2023:PARTIAL:22;2024:PARTIAL:22;2025:PARTIAL:8",
        "fcover_2021_2025_availability": "2021:PARTIAL:3;2022:PARTIAL:3;2023:PARTIAL:3;2024:PARTIAL:3;2025:PARTIAL:3"
      },
      "geometry": {
        "type": "Polygon",
        "coordinates": [
          [
            [
              98.21938325936036,
              36.25007641762047
            ],
            [
              98.22450768626669,
              36.2521492787298
            ],
            [
              98.22899138467737,
              36.26335444496583
            ],
            [
              98.25272951982522,
              36.28851348664455
            ],
            [
              98.26502476212261,
              36.28699904348845
            ],
            [
              98.29274192714853,
              36.291724870875406
            ],
            [
              98.31723937867064,
              36.30112647511631
            ],
            [
              98.3288726258034,
              36.30558874165686
            ],
            [
              98.34867421584764,
              36.312079397340504
            ],
            [
              98.37125772731926,
              36.302481245296555
            ],
            [
              98.38331685946102,
              36.29367382010059
            ],
            [
              98.39014469950637,
              36.28868576274233
            ],
            [
              98.41111184321515,
              36.27678225589577
            ],
            [
              98.45652937302528,
              36.274734616383846
            ],
            [
              98.47643228847011,
              36.28311388659153
            ],
            [
              98.49728201665965,
              36.28074012063719
            ],
            [
              98.52033950947983,
              36.259651920371255
            ],
            [
              98.55085856633369,
              36.249405298846945
            ],
            [
              98.58488299087459,
              36.248676118494025
            ],
            [
              98.5958509702079,
              36.24927454908934
            ],
            [
              98.60290715815897,
              36.229543605003926
            ],
            [
              98.5808824177976,
              36.215561898155634
            ],
            [
              98.57434196067685,
              36.20694381208986
            ],
            [
              98.56846479132365,
              36.188370011301515
            ],
            [
              98.57586329647538,
              36.173978680633354
            ],
            [
              98.56884546941326,
              36.115765022031816
            ],
            [
              98.55881129656531,
              36.11094085316412
            ],
            [
              98.52935292928775,
              36.10007388950259
            ],
            [
              98.52435852895502,
              36.095909266485855
            ],
            [
              98.50616443156679,
              36.105812854499526
            ],
            [
              98.46248152007178,
              36.11095496866601
            ],
            [
              98.42518588163446,
              36.10301915556617
            ],
            [
              98.41239345096571,
              36.09733998160809
            ],
            [
              98.39133954722773,
              36.09885024557905
            ],
            [
              98.38576826675886,
              36.11426451383055
            ],
            [
              98.36788331831688,
              36.127251505954945
            ],
            [
              98.34192711112202,
              36.13850381403766
            ],
            [
              98.31970981989656,
              36.132859943961904
            ],
            [
              98.30330691810724,
              36.123151269435525
            ],
            [
              98.27929008108742,
              36.12184436380881
            ],
            [
              98.25958495636182,
              36.1278369520101
            ],
            [
              98.25452400763467,
              36.13773290903546
            ],
            [
              98.23496491987288,
              36.147231890191854
            ],
            [
              98.22291808078359,
              36.14200321813915
            ],
            [
              98.20853531860887,
              36.15964148706149
            ],
            [
              98.2229387873278,
              36.169414465047275
            ],
            [
              98.2234369566707,
              36.204151507171595
            ],
            [
              98.22156848373166,
              36.230361102086306
            ],
            [
              98.21938325936036,
              36.25007641762047
            ]
          ]
        ]
      }
    },
    {
      "type": "Feature",
      "properties": {
        "aoi_id": "AOI-C04",
        "role": "candidate",
        "centroid_lon": 99.30000230682596,
        "centroid_lat": 35.30000106400584,
        "area_km2": 583.1314164577324,
        "expected_5km_block_count": 39,
        "geometry_version": "translated-aoi00-shape-v1",
        "eligibility": true,
        "exclusion_reason": "",
        "selection_status": "NOT_SELECTED",
        "final_aoi_id": "",
        "elevation_median_m": 4250.00927734375,
        "elevation_iqr_m": 261.54248046875,
        "elevation_range_m": 649.54052734375,
        "slope_median_degrees": 12.515878677368164,
        "terrain_ruggedness_m": 12.437255859375,
        "dem_items": 1,
        "tree_fraction": 0.0001091096651325,
        "shrub_fraction": 3.9676241866370415e-05,
        "grassland_fraction": 0.7490378511347405,
        "cropland_fraction": 0.0,
        "built_fraction": 0.0024896841771147,
        "bare_sparse_fraction": 0.1305943501031582,
        "snow_ice_fraction": 0.0,
        "water_fraction": 0.0842723377241707,
        "wetland_fraction": 0.0002876527535311,
        "mangrove_fraction": 0.0,
        "moss_lichen_fraction": 0.0331693382002856,
        "vegetation_fraction": 0.7826436279955562,
        "worldcover_items": 1,
        "historical_ndvi_median": 0.47905,
        "historical_ndvi_iqr": 0.032825,
        "historical_ndvi_years": 4,
        "historical_ndvi_items": 4,
        "environmental_distance_to_AOI00": 3.0279873518790836,
        "geographic_distance_to_AOI00_km": 304.5158008727664,
        "minimum_environmental_distance_to_other_candidates": 1.3613529330769225,
        "minimum_geographic_distance_to_other_aois_km": 120.4742361933634,
        "sentinel2_2021_2025_availability": "2021:PARTIAL:30;2022:PARTIAL:33;2023:PARTIAL:64;2024:PARTIAL:36;2025:PARTIAL:40",
        "landsat_2021_2025_availability": "2021:PARTIAL:20;2022:PARTIAL:28;2023:PARTIAL:40;2024:PARTIAL:40;2025:PARTIAL:40",
        "modis_2021_2025_availability": "2021:PARTIAL:22;2022:PARTIAL:22;2023:PARTIAL:22;2024:PARTIAL:22;2025:PARTIAL:8",
        "fcover_2021_2025_availability": "2021:PARTIAL:3;2022:PARTIAL:3;2023:PARTIAL:3;2024:PARTIAL:3;2025:PARTIAL:3"
      },
      "geometry": {
        "type": "Polygon",
        "coordinates": [
          [
            [
              99.12140902823734,
              35.35008836240193
            ],
            [
              99.1264761295909,
              35.3521612864025
            ],
            [
              99.13091032108191,
              35.36336792252097
            ],
            [
              99.15438360342483,
              35.388529712482736
            ],
            [
              99.16654066686395,
              35.38701457030187
            ],
            [
              99.19394674910826,
              35.39174019427583
            ],
            [
              99.21816934192967,
              35.40114257687958
            ],
            [
              99.22967199904619,
              35.40560526988817
            ],
            [
              99.249251183376,
              35.412096570322966
            ],
            [
              99.27158071410699,
              35.402496731652086
            ],
            [
              99.28350427337396,
              35.39368791000358
            ],
            [
              99.29025539114112,
              35.38869907936905
            ],
            [
              99.31098709272263,
              35.37679378971099
            ],
            [
              99.35589477634652,
              35.37474626054244
            ],
            [
              99.37557399991923,
              35.38312714792679
            ],
            [
              99.39618969309511,
              35.38075351808931
            ],
            [
              99.41898932719941,
              35.359662835646766
            ],
            [
              99.4491666011314,
              35.34941580202941
            ],
            [
              99.48280947862723,
              35.348688065185954
            ],
            [
              99.4936544015553,
              35.34928715322061
            ],
            [
              99.50063309087436,
              35.32955363210134
            ],
            [
              99.47885622582179,
              35.31556867938269
            ],
            [
              99.47238964775346,
              35.306948985227805
            ],
            [
              99.46657957212935,
              35.28837212591483
            ],
            [
              99.47389631908112,
              35.27397898439728
            ],
            [
              99.46696100059198,
              35.21575627475037
            ],
            [
              99.45703913077777,
              35.21093093636574
            ],
            [
              99.4279100609342,
              35.20006119117079
            ],
            [
              99.42297158199042,
              35.1958957722348
            ],
            [
              99.40497997048631,
              35.20580027314851
            ],
            [
              99.36178429144813,
              35.21094215588996
            ],
            [
              99.32490491500762,
              35.20300470976375
            ],
            [
              99.31225522183203,
              35.19732461996823
            ],
            [
              99.29143614607301,
              35.198835099417124
            ],
            [
              99.28592709732416,
              35.2142516935344
            ],
            [
              99.26824192079116,
              35.22724074368184
            ],
            [
              99.24257579746391,
              35.238495055747094
            ],
            [
              99.2206064927767,
              35.23285075804337
            ],
            [
              99.20438639338826,
              35.223141023800814
            ],
            [
              99.18063761401145,
              35.22183463225266
            ],
            [
              99.16115280873868,
              35.22782881765397
            ],
            [
              99.15614895776802,
              35.23772645389489
            ],
            [
              99.13680898280549,
              35.24722768391145
            ],
            [
              99.12489637350224,
              35.24199878874957
            ],
            [
              99.1106756698168,
              35.259640421219636
            ],
            [
              99.12491883255403,
              35.26941414221397
            ],
            [
              99.1254139398409,
              35.304156367594494
            ],
            [
              99.12356830265173,
              35.33036998298142
            ],
            [
              99.12140902823734,
              35.35008836240193
            ]
          ]
        ]
      }
    },
    {
      "type": "Feature",
      "properties": {
        "aoi_id": "AOI-C05",
        "role": "candidate",
        "centroid_lon": 98.20000277068756,
        "centroid_lat": 34.70000128847819,
        "area_km2": 583.1314164251306,
        "expected_5km_block_count": 39,
        "geometry_version": "translated-aoi00-shape-v1",
        "eligibility": false,
        "exclusion_reason": "water_fraction>0.1",
        "selection_status": "NOT_SELECTED",
        "final_aoi_id": "",
        "elevation_median_m": 4250.77392578125,
        "elevation_iqr_m": 82.7451171875,
        "elevation_range_m": 172.06591796875,
        "slope_median_degrees": 3.452476739883423,
        "terrain_ruggedness_m": 3.253173828125,
        "dem_items": 1,
        "tree_fraction": 0.0,
        "shrub_fraction": 0.0,
        "grassland_fraction": 0.7592114596469105,
        "cropland_fraction": 0.0,
        "built_fraction": 0.0022363650693568,
        "bare_sparse_fraction": 0.0970405107187894,
        "snow_ice_fraction": 0.0,
        "water_fraction": 0.1133452868852459,
        "wetland_fraction": 0.0281663776796973,
        "mangrove_fraction": 0.0,
        "moss_lichen_fraction": 0.0,
        "vegetation_fraction": 0.7873778373266078,
        "worldcover_items": 1,
        "historical_ndvi_median": 0.42505,
        "historical_ndvi_iqr": 0.0249999999999999,
        "historical_ndvi_years": 4,
        "historical_ndvi_items": 4,
        "environmental_distance_to_AOI00": 1.8367363555483969,
        "geographic_distance_to_AOI00_km": 388.74857820812974,
        "minimum_environmental_distance_to_other_candidates": 2.5260823862859754,
        "minimum_geographic_distance_to_other_aois_km": 120.4742361933634,
        "sentinel2_2021_2025_availability": "2021:PARTIAL:32;2022:PARTIAL:34;2023:PARTIAL:64;2024:PARTIAL:32;2025:PARTIAL:42",
        "landsat_2021_2025_availability": "2021:PARTIAL:5;2022:PARTIAL:6;2023:PARTIAL:10;2024:PARTIAL:10;2025:PARTIAL:10",
        "modis_2021_2025_availability": "2021:PARTIAL:44;2022:PARTIAL:44;2023:PARTIAL:44;2024:PARTIAL:44;2025:PARTIAL:12",
        "fcover_2021_2025_availability": "2021:PARTIAL:3;2022:PARTIAL:3;2023:PARTIAL:3;2024:PARTIAL:3;2025:PARTIAL:3"
      },
      "geometry": {
        "type": "Polygon",
        "coordinates": [
          [
            [
              98.02271033656555,
              34.7500962267614
            ],
            [
              98.02774061325546,
              34.75216919382714
            ],
            [
              98.03214300256856,
              34.7633768023428
            ],
            [
              98.0554461492998,
              34.78854041435289
            ],
            [
              98.06751444975464,
              34.787024813234204
            ],
            [
              98.09472069941752,
              34.79175030843417
            ],
            [
              98.11876672920022,
              34.80115320920795
            ],
            [
              98.13018549824059,
              34.805616185491225
            ],
            [
              98.14962181417908,
              34.81210791396052
            ],
            [
              98.17178819347347,
              34.8025069624319
            ],
            [
              98.18362466381376,
              34.793697218595796
            ],
            [
              98.19032649693395,
              34.78870787720683
            ],
            [
              98.21090695583504,
              34.7768014096272
            ],
            [
              98.25548712582004,
              34.774753950794214
            ],
            [
              98.27502265481216,
              34.783135904424014
            ],
            [
              98.29548800918043,
              34.78076236148897
            ],
            [
              98.31812200060216,
              34.75967003492446
            ],
            [
              98.34807972082794,
              34.749422722166464
            ],
            [
              98.38147750101687,
              34.74869592951344
            ],
            [
              98.39224337524841,
              34.7492954484272
            ],
            [
              98.39917228111594,
              34.72956022245428
            ],
            [
              98.3775546456403,
              34.71557313235642
            ],
            [
              98.3711355258273,
              34.70695237775406
            ],
            [
              98.36536854972803,
              34.688373499550146
            ],
            [
              98.37263277705537,
              34.673979159666516
            ],
            [
              98.36575046044808,
              34.61575047293954
            ],
            [
              98.3559007316087,
              34.61092436466662
            ],
            [
              98.32698319507378,
              34.600052788942186
            ],
            [
              98.32208063878662,
              34.59588684527283
            ],
            [
              98.30421909958973,
              34.60579195261036
            ],
            [
              98.26133640762278,
              34.61093368844423
            ],
            [
              98.22472442844108,
              34.602995166225945
            ],
            [
              98.21216642658544,
              34.597314471841386
            ],
            [
              98.19149819897117,
              34.59882509369258
            ],
            [
              98.18602912646988,
              34.61424322412219
            ],
            [
              98.16847227888512,
              34.62723363310056
            ],
            [
              98.14299249887596,
              34.638489267081425
            ],
            [
              98.1211824951219,
              34.63284468438557
            ],
            [
              98.10507982383953,
              34.62313424774596
            ],
            [
              98.08150323863663,
              34.62182819155132
            ],
            [
              98.06215996164279,
              34.62782342785933
            ],
            [
              98.0571927890256,
              34.63772217219317
            ],
            [
              98.03799356725101,
              34.64722488284579
            ],
            [
              98.02616718414421,
              34.641995836944055
            ],
            [
              98.01205058328559,
              34.65963968703569
            ],
            [
              98.02619076905428,
              34.66941390320097
            ],
            [
              98.02668390938454,
              34.70415955288909
            ],
            [
              98.02485294135143,
              34.73037582381618
            ],
            [
              98.02271033656555,
              34.7500962267614
            ]
          ]
        ]
      }
    },
    {
      "type": "Feature",
      "properties": {
        "aoi_id": "AOI-C06",
        "role": "candidate",
        "centroid_lon": 96.8000038737463,
        "centroid_lat": 33.20000183748169,
        "area_km2": 583.1314163448723,
        "expected_5km_block_count": 39,
        "geometry_version": "translated-aoi00-shape-v1",
        "eligibility": true,
        "exclusion_reason": "",
        "selection_status": "NOT_SELECTED",
        "final_aoi_id": "",
        "elevation_median_m": 4628.20361328125,
        "elevation_iqr_m": 384.2900390625,
        "elevation_range_m": 816.322265625,
        "slope_median_degrees": 21.093521118164062,
        "terrain_ruggedness_m": 21.66748046875,
        "dem_items": 1,
        "tree_fraction": 0.0001452221899506,
        "shrub_fraction": 0.0001355407106205,
        "grassland_fraction": 0.8207377287249492,
        "cropland_fraction": 0.0,
        "built_fraction": 6.777035531029141e-05,
        "bare_sparse_fraction": 0.060702875399361,
        "snow_ice_fraction": 0.0,
        "water_fraction": 0.0,
        "wetland_fraction": 6.777035531029141e-05,
        "mangrove_fraction": 0.0,
        "moss_lichen_fraction": 0.118143092264498,
        "vegetation_fraction": 0.9392293542453288,
        "worldcover_items": 1,
        "historical_ndvi_median": 0.7294,
        "historical_ndvi_iqr": 0.0218249999999999,
        "historical_ndvi_years": 4,
        "historical_ndvi_items": 4,
        "environmental_distance_to_AOI00": 5.274995077413681,
        "geographic_distance_to_AOI00_km": 590.3602085183201,
        "minimum_environmental_distance_to_other_candidates": 1.9722904064176396,
        "minimum_geographic_distance_to_other_aois_km": 116.91383292357023,
        "sentinel2_2021_2025_availability": "2021:PARTIAL:64;2022:PARTIAL:71;2023:PARTIAL:122;2024:PARTIAL:64;2025:PARTIAL:82",
        "landsat_2021_2025_availability": "2021:PARTIAL:10;2022:PARTIAL:14;2023:PARTIAL:21;2024:PARTIAL:19;2025:PARTIAL:20",
        "modis_2021_2025_availability": "2021:PARTIAL:22;2022:PARTIAL:22;2023:PARTIAL:22;2024:PARTIAL:22;2025:PARTIAL:8",
        "fcover_2021_2025_availability": "2021:PARTIAL:3;2022:PARTIAL:3;2023:PARTIAL:3;2024:PARTIAL:3;2025:PARTIAL:3"
      },
      "geometry": {
        "type": "Polygon",
        "coordinates": [
          [
            [
              96.62579959967151,
              33.250115537123456
            ],
            [
              96.63074245620606,
              33.252188614550064
            ],
            [
              96.63506935037309,
              33.263398623641756
            ],
            [
              96.65796860448334,
              33.28856674471227
            ],
            [
              96.66982618372322,
              33.287050020308065
            ],
            [
              96.69655803677455,
              33.291775213682456
            ],
            [
              96.72018491143625,
              33.30117940271145
            ],
            [
              96.73140453264435,
              33.30564308151864
            ],
            [
              96.75050168290024,
              33.3121358708808
            ],
            [
              96.77228074425045,
              33.30253218008851
            ],
            [
              96.78391046751362,
              33.293720164119755
            ],
            [
              96.79049530013842,
              33.28872956403465
            ],
            [
              96.81071671320817,
              33.2768201926019
            ],
            [
              96.85451937550452,
              33.27477290002198
            ],
            [
              96.8737137770525,
              33.283157475968224
            ],
            [
              96.89382223154014,
              33.28078413884236
            ],
            [
              96.9160629947717,
              33.259687747700625
            ],
            [
              96.94549950309917,
              33.24943972774281
            ],
            [
              96.9783154303108,
              33.24871523620536
            ],
            [
              96.98889364531418,
              33.24931580761649
            ],
            [
              96.99570437156082,
              33.229576372808914
            ],
            [
              96.97446474457739,
              33.21558403364961
            ],
            [
              96.9681582907056,
              33.20696067049794
            ],
            [
              96.96249363504256,
              33.188376820688426
            ],
            [
              96.96963318616542,
              33.173979521348244
            ],
            [
              96.96287670635948,
              33.115736108817146
            ],
            [
              96.95319823721671,
              33.11090811048685
            ],
            [
              96.92478287066092,
              33.10003204236124
            ],
            [
              96.91996559334312,
              33.09586480831981
            ],
            [
              96.90241283660069,
              33.10577141953523
            ],
            [
              96.86027315725654,
              33.11091280976921
            ],
            [
              96.8242959640214,
              33.102971642785285
            ],
            [
              96.81195563202456,
              33.09728945945266
            ],
            [
              96.79164550882712,
              33.098800432431176
            ],
            [
              96.78627133783252,
              33.114222348881974
            ],
            [
              96.76901913639455,
              33.1272161049668
            ],
            [
              96.74398172609828,
              33.13847499172314
            ],
            [
              96.72254989381618,
              33.13282969971161
            ],
            [
              96.70672598936558,
              33.12311752542561
            ],
            [
              96.68355818347693,
              33.1218122840357
            ],
            [
              96.6645508879682,
              33.127810098850375
            ],
            [
              96.65967078968289,
              33.13771157093901
            ],
            [
              96.64080571075661,
              33.14721791714511
            ],
            [
              96.62918402317005,
              33.1419884904567
            ],
            [
              96.61531456154049,
              33.15963779424216
            ],
            [
              96.62921028703181,
              33.16941324283739
            ],
            [
              96.62969876552965,
              33.20416733306234
            ],
            [
              96.62790262714181,
              33.230390148066036
            ],
            [
              96.62579959967151,
              33.250115537123456
            ]
          ]
        ]
      }
    },
    {
      "type": "Feature",
      "properties": {
        "aoi_id": "AOI-C07",
        "role": "candidate",
        "centroid_lon": 95.60000408531164,
        "centroid_lat": 32.9000019453025,
        "area_km2": 583.1314163289553,
        "expected_5km_block_count": 39,
        "geometry_version": "translated-aoi00-shape-v1",
        "eligibility": true,
        "exclusion_reason": "",
        "selection_status": "SELECTED",
        "final_aoi_id": "AOI-02",
        "elevation_median_m": 4551.08740234375,
        "elevation_iqr_m": 366.47998046875,
        "elevation_range_m": 843.74951171875,
        "slope_median_degrees": 21.26257705688477,
        "terrain_ruggedness_m": 22.752685546875,
        "dem_items": 2,
        "tree_fraction": 1.927933833310841e-05,
        "shrub_fraction": 0.0002409917291638,
        "grassland_fraction": 0.8084308546530683,
        "cropland_fraction": 0.0,
        "built_fraction": 0.0001253156991652,
        "bare_sparse_fraction": 0.094709749561395,
        "snow_ice_fraction": 0.0,
        "water_fraction": 0.0033256858624612,
        "wetland_fraction": 0.0,
        "mangrove_fraction": 0.0,
        "moss_lichen_fraction": 0.0931481231564132,
        "vegetation_fraction": 0.9018392488769784,
        "worldcover_items": 2,
        "historical_ndvi_median": 0.616525,
        "historical_ndvi_iqr": 0.0469875,
        "historical_ndvi_years": 4,
        "historical_ndvi_items": 4,
        "environmental_distance_to_AOI00": 5.834261354552182,
        "geographic_distance_to_AOI00_km": 671.5222542403204,
        "minimum_environmental_distance_to_other_candidates": 1.9722904064176396,
        "minimum_geographic_distance_to_other_aois_km": 116.91383292357023,
        "sentinel2_2021_2025_availability": "2021:PARTIAL:32;2022:PARTIAL:38;2023:PARTIAL:60;2024:PARTIAL:32;2025:PARTIAL:40",
        "landsat_2021_2025_availability": "2021:PARTIAL:10;2022:PARTIAL:15;2023:PARTIAL:20;2024:PARTIAL:19;2025:PARTIAL:19",
        "modis_2021_2025_availability": "2021:PARTIAL:44;2022:PARTIAL:44;2023:PARTIAL:44;2024:PARTIAL:44;2025:PARTIAL:12",
        "fcover_2021_2025_availability": "2021:PARTIAL:3;2022:PARTIAL:3;2023:PARTIAL:3;2024:PARTIAL:3;2025:PARTIAL:3"
      },
      "geometry": {
        "type": "Polygon",
        "coordinates": [
          [
            [
              95.426390393326,
              32.95011933840662
            ],
            [
              95.43131653167143,
              32.952192438197514
            ],
            [
              95.43562898876026,
              32.963402921639634
            ],
            [
              95.45845100325151,
              32.98857193520801
            ],
            [
              95.47026828371258,
              32.987054990181186
            ],
            [
              95.49690941250346,
              32.991780126134714
            ],
            [
              95.52045612744752,
              33.00118457097333
            ],
            [
              95.53163766333478,
              33.005648389042584
            ],
            [
              95.55066995095052,
              33.01214138861972
            ],
            [
              95.57237494065767,
              33.00253715765773
            ],
            [
              95.5839651251392,
              32.993724693331664
            ],
            [
              95.59052758235639,
              32.988733844832055
            ],
            [
              95.6106803309251,
              32.976823900162
            ],
            [
              95.65433430153202,
              32.9747766394146
            ],
            [
              95.67346346513946,
              32.98316173215963
            ],
            [
              95.6935036655882,
              32.98078843449707
            ],
            [
              95.71566922813933,
              32.95969123940929
            ],
            [
              95.74500605984176,
              32.94944307721837
            ],
            [
              95.7777107129489,
              32.94871903626871
            ],
            [
              95.78825303976578,
              32.94931981410548
            ],
            [
              95.7950411666833,
              32.92957954764017
            ],
            [
              95.77387383121342,
              32.915586175072505
            ],
            [
              95.76758892416876,
              32.90696229777493
            ],
            [
              95.76194383744883,
              32.888377467315344
            ],
            [
              95.76905954648906,
              32.87397958306453
            ],
            [
              95.7623271354194,
              32.81573326494336
            ],
            [
              95.75268141794704,
              32.81090489460487
            ],
            [
              95.7243620858843,
              32.800027942475275
            ],
            [
              95.71956111732042,
              32.795860454160916
            ],
            [
              95.70206741096015,
              32.80576736345306
            ],
            [
              95.66006982354959,
              32.81090868773456
            ],
            [
              95.62421402549015,
              32.80296699978696
            ],
            [
              95.61191532019475,
              32.79728452274841
            ],
            [
              95.5916736800043,
              32.798795565047826
            ],
            [
              95.58631765782847,
              32.814218228659726
            ],
            [
              95.56912371644788,
              32.82721264507884
            ],
            [
              95.54417090440178,
              32.83847217309463
            ],
            [
              95.5228113928842,
              32.83282674014111
            ],
            [
              95.50704079898303,
              32.82311422201631
            ],
            [
              95.48395116723792,
              32.82180913983291
            ],
            [
              95.46500812453542,
              32.82780746196135
            ],
            [
              95.46014467875605,
              32.837709471958874
            ],
            [
              95.44134350142575,
              32.84721653381738
            ],
            [
              95.42976095920291,
              32.84198703070392
            ],
            [
              95.41593876145005,
              32.85963740921707
            ],
            [
              95.42978773724495,
              32.86941310270094
            ],
            [
              95.43027532653107,
              32.90416885892403
            ],
            [
              95.42848585070143,
              32.93039296540087
            ],
            [
              95.426390393326,
              32.95011933840662
            ]
          ]
        ]
      }
    },
    {
      "type": "Feature",
      "properties": {
        "aoi_id": "AOI-C08",
        "role": "candidate",
        "centroid_lon": 95.8000031470708,
        "centroid_lat": 34.20000147336552,
        "area_km2": 583.1314163981984,
        "expected_5km_block_count": 39,
        "geometry_version": "translated-aoi00-shape-v1",
        "eligibility": true,
        "exclusion_reason": "",
        "selection_status": "NOT_SELECTED",
        "final_aoi_id": "",
        "elevation_median_m": 4433.59716796875,
        "elevation_iqr_m": 375.36669921875,
        "elevation_range_m": 740.78173828125,
        "slope_median_degrees": 10.13749885559082,
        "terrain_ruggedness_m": 9.8587646484375,
        "dem_items": 1,
        "tree_fraction": 0.0,
        "shrub_fraction": 0.0,
        "grassland_fraction": 0.8607696838798351,
        "cropland_fraction": 0.0,
        "built_fraction": 0.0034262713528372,
        "bare_sparse_fraction": 0.1026605144315727,
        "snow_ice_fraction": 0.0,
        "water_fraction": 0.0130375024543491,
        "wetland_fraction": 0.0004221480463381,
        "mangrove_fraction": 0.0,
        "moss_lichen_fraction": 0.0196838798350677,
        "vegetation_fraction": 0.8808757117612409,
        "worldcover_items": 1,
        "historical_ndvi_median": 0.5588,
        "historical_ndvi_iqr": 0.01005,
        "historical_ndvi_years": 4,
        "historical_ndvi_items": 4,
        "environmental_distance_to_AOI00": 3.4722395973687616,
        "geographic_distance_to_AOI00_km": 541.3196035074362,
        "minimum_environmental_distance_to_other_candidates": 1.7941162612222012,
        "minimum_geographic_distance_to_other_aois_km": 144.55736554511026,
        "sentinel2_2021_2025_availability": "2021:PARTIAL:61;2022:PARTIAL:75;2023:PARTIAL:120;2024:PARTIAL:64;2025:PARTIAL:80",
        "landsat_2021_2025_availability": "2021:PARTIAL:15;2022:PARTIAL:23;2023:PARTIAL:32;2024:PARTIAL:29;2025:PARTIAL:29",
        "modis_2021_2025_availability": "2021:PARTIAL:22;2022:PARTIAL:22;2023:PARTIAL:22;2024:PARTIAL:22;2025:PARTIAL:8",
        "fcover_2021_2025_availability": "2021:PARTIAL:3;2022:PARTIAL:3;2023:PARTIAL:3;2024:PARTIAL:3;2025:PARTIAL:3"
      },
      "geometry": {
        "type": "Polygon",
        "coordinates": [
          [
            [
              95.62376566436632,
              34.25010271947583
            ],
            [
              95.62876607723703,
              34.252175722973526
            ],
            [
              95.63314267604736,
              34.26338413674443
            ],
            [
              95.65630784756326,
              34.288549259692864
            ],
            [
              95.66830416340953,
              34.28703328036629
            ],
            [
              95.69534835387722,
              34.29175867198245
            ],
            [
              95.71925119551432,
              34.301162003575264
            ],
            [
              95.73060193343456,
              34.30562521504856
            ],
            [
              95.74992238666624,
              34.31211729877411
            ],
            [
              95.77195645411338,
              34.3025154272102
            ],
            [
              95.78372229746716,
              34.29370492055416
            ],
            [
              95.79038416195772,
              34.28871515662458
            ],
            [
              95.81084196683582,
              34.276807714375025
            ],
            [
              95.85515653151258,
              34.27476031238427
            ],
            [
              95.87457552773175,
              34.28314314709446
            ],
            [
              95.89491896111203,
              34.28076967446578
            ],
            [
              95.91741862079036,
              34.25967598530029
            ],
            [
              95.94719828872435,
              34.249428437945085
            ],
            [
              95.98039730124059,
              34.248702421518566
            ],
            [
              95.99109906896584,
              34.249302295115655
            ],
            [
              95.99798760226771,
              34.22956565732229
            ],
            [
              95.976499098247,
              34.2155768024629
            ],
            [
              95.97011846606136,
              34.206955171474284
            ],
            [
              95.96438644300855,
              34.188374623764226
            ],
            [
              95.97160807869999,
              34.17397929129569
            ],
            [
              95.96476874675493,
              34.11574566052199
            ],
            [
              95.95497752233751,
              34.11091891670291
            ],
            [
              95.92623153354636,
              34.10004583015501
            ],
            [
              95.92135810959074,
              34.09587945290332
            ],
            [
              95.9036020551098,
              34.105785063728746
            ],
            [
              95.86097318664005,
              34.110926681158816
            ],
            [
              95.82457805902892,
              34.1029872700531
            ],
            [
              95.81209441620747,
              34.09730607568257
            ],
            [
              95.79154852207989,
              34.0988168153797
            ],
            [
              95.78611186919785,
              34.11423621678788
            ],
            [
              95.7686590928002,
              34.12722774962193
            ],
            [
              95.74333043207353,
              34.13848447627823
            ],
            [
              95.72164961685627,
              34.132839656479064
            ],
            [
              95.70564217632564,
              34.12312863747843
            ],
            [
              95.682205235717,
              34.1218228565037
            ],
            [
              95.66297673430753,
              34.12781896006416
            ],
            [
              95.65803930704065,
              34.137718620545144
            ],
            [
              95.63895423244647,
              34.147222553587625
            ],
            [
              95.62719777626786,
              34.141993381206966
            ],
            [
              95.61316560046627,
              34.15963906375967
            ],
            [
              95.62722227497893,
              34.16941369188847
            ],
            [
              95.62771382108102,
              34.20416217481195
            ],
            [
              95.62589475001923,
              34.23038064260804
            ],
            [
              95.62376566436632,
              34.25010271947583
            ]
          ]
        ]
      }
    },
    {
      "type": "Feature",
      "properties": {
        "aoi_id": "AOI-C09",
        "role": "candidate",
        "centroid_lon": 97.2000019898594,
        "centroid_lat": 35.700000912723965,
        "area_km2": 583.1314164794978,
        "expected_5km_block_count": 39,
        "geometry_version": "translated-aoi00-shape-v1",
        "eligibility": true,
        "exclusion_reason": "",
        "selection_status": "SELECTED",
        "final_aoi_id": "AOI-03",
        "elevation_median_m": 4686.14794921875,
        "elevation_iqr_m": 391.4140625,
        "elevation_range_m": 802.1435546875,
        "slope_median_degrees": 12.240899085998535,
        "terrain_ruggedness_m": 12.059814453125,
        "dem_items": 1,
        "tree_fraction": 0.0,
        "shrub_fraction": 0.0,
        "grassland_fraction": 0.3461726766783569,
        "cropland_fraction": 0.0,
        "built_fraction": 0.0,
        "bare_sparse_fraction": 0.5002447968186405,
        "snow_ice_fraction": 0.000139883896366,
        "water_fraction": 6.99419481830081e-05,
        "wetland_fraction": 0.0,
        "mangrove_fraction": 0.0,
        "moss_lichen_fraction": 0.1533727006584535,
        "vegetation_fraction": 0.4995453773368104,
        "worldcover_items": 1,
        "historical_ndvi_median": 0.2432,
        "historical_ndvi_iqr": 0.0151749999999999,
        "historical_ndvi_years": 4,
        "historical_ndvi_items": 4,
        "environmental_distance_to_AOI00": 5.111880908891579,
        "geographic_distance_to_AOI00_km": 331.4556834513436,
        "minimum_environmental_distance_to_other_candidates": 2.8117044711327055,
        "minimum_geographic_distance_to_other_aois_km": 121.65038019347715,
        "sentinel2_2021_2025_availability": "2021:PARTIAL:32;2022:PARTIAL:36;2023:PARTIAL:62;2024:PARTIAL:31;2025:PARTIAL:40",
        "landsat_2021_2025_availability": "2021:PARTIAL:15;2022:PARTIAL:22;2023:PARTIAL:31;2024:PARTIAL:30;2025:PARTIAL:30",
        "modis_2021_2025_availability": "2021:PARTIAL:22;2022:PARTIAL:22;2023:PARTIAL:22;2024:PARTIAL:22;2025:PARTIAL:8",
        "fcover_2021_2025_availability": "2021:PARTIAL:3;2022:PARTIAL:3;2023:PARTIAL:3;2024:PARTIAL:3;2025:PARTIAL:3"
      },
      "geometry": {
        "type": "Polygon",
        "coordinates": [
          [
            [
              97.0205198029531,
              35.75008307548164
            ],
            [
              97.02561206776969,
              35.75215597124988
            ],
            [
              97.03006799072972,
              35.76336195567191
            ],
            [
              97.05365753217065,
              35.78852252620057
            ],
            [
              97.06587525015736,
              35.78700769310814
            ],
            [
              97.09341788433082,
              35.79173340588599
            ],
            [
              97.11776112827569,
              35.80113544261581
            ],
            [
              97.12932110877452,
              35.80559794626974
            ],
            [
              97.14899791960468,
              35.812088960486015
            ],
            [
              97.1714389368779,
              35.802489868909284
            ],
            [
              97.1834220067676,
              35.79368166601046
            ],
            [
              97.19020680229669,
              35.78869317802816
            ],
            [
              97.21104185280265,
              35.77678867845158
            ],
            [
              97.2561733368948,
              35.774741100995804
            ],
            [
              97.2759507515234,
              35.78312127223677
            ],
            [
              97.29666917597339,
              35.78074758280032
            ],
            [
              97.31958199900934,
              35.759658001358645
            ],
            [
              97.34990930096929,
              35.7494111520063
            ],
            [
              97.38371966120549,
              35.748682777728035
            ],
            [
              97.39461860059977,
              35.749281575242634
            ],
            [
              97.4016313086085,
              35.7295491966998
            ],
            [
              97.37974563701572,
              35.71556568072376
            ],
            [
              97.37324662925725,
              35.70694669873522
            ],
            [
              97.36740710244996,
              35.6883711944042
            ],
            [
              97.37475973781196,
              35.673978855854564
            ],
            [
              97.36778820181615,
              35.615760156613014
            ],
            [
              97.35781703578327,
              35.61093533584586
            ],
            [
              97.32854341846361,
              35.600066821602425
            ],
            [
              97.32358039242881,
              35.595901755120266
            ],
            [
              97.30549989825188,
              35.60580585068577
            ],
            [
              97.26209034498918,
              35.610947834553386
            ],
            [
              97.22502824734129,
              35.603011111447266
            ],
            [
              97.21231589851165,
              35.59733142739877
            ],
            [
              97.19139374331034,
              35.59884181134661
            ],
            [
              97.18585737750159,
              35.61425737481268
            ],
            [
              97.16808450965618,
              35.627245513131705
            ],
            [
              97.14229105194201,
              35.63849893760711
            ],
            [
              97.12021289177316,
              35.63285483000088
            ],
            [
              97.10391254993485,
              35.623145565924005
            ],
            [
              97.0800461047149,
              35.621838947581566
            ],
            [
              97.06046458864022,
              35.6278324262021
            ],
            [
              97.05543567422716,
              35.63772931859901
            ],
            [
              97.03599951815247,
              35.64722955323831
            ],
            [
              97.02402798769403,
              35.642000757747034
            ],
            [
              97.0097361473388,
              35.659640900726814
            ],
            [
              97.0240496775845,
              35.669414291426385
            ],
            [
              97.02454612914362,
              35.70415421983445
            ],
            [
              97.0226904681744,
              35.73036605367854
            ],
            [
              97.0205198029531,
              35.75008307548164
            ]
          ]
        ]
      }
    },
    {
      "type": "Feature",
      "properties": {
        "aoi_id": "AOI-C10",
        "role": "candidate",
        "centroid_lon": 93.50000133638132,
        "centroid_lat": 36.50000060607925,
        "area_km2": 583.1314165235634,
        "expected_5km_block_count": 39,
        "geometry_version": "translated-aoi00-shape-v1",
        "eligibility": true,
        "exclusion_reason": "",
        "selection_status": "SELECTED",
        "final_aoi_id": "AOI-01",
        "elevation_median_m": 3232.8759765625,
        "elevation_iqr_m": 172.8291015625,
        "elevation_range_m": 425.0283203125,
        "slope_median_degrees": 4.515046119689941,
        "terrain_ruggedness_m": 4.3555908203125,
        "dem_items": 1,
        "tree_fraction": 0.0,
        "shrub_fraction": 9.085586222213247e-05,
        "grassland_fraction": 0.0005451351733327,
        "cropland_fraction": 0.0,
        "built_fraction": 0.0,
        "bare_sparse_fraction": 0.9993640089644452,
        "snow_ice_fraction": 0.0,
        "water_fraction": 0.0,
        "wetland_fraction": 0.0,
        "mangrove_fraction": 0.0,
        "moss_lichen_fraction": 0.0,
        "vegetation_fraction": 0.0006359910355549,
        "worldcover_items": 1,
        "historical_ndvi_median": 0.0609,
        "historical_ndvi_iqr": 0.0022,
        "historical_ndvi_years": 4,
        "historical_ndvi_items": 4,
        "environmental_distance_to_AOI00": 6.279590477492674,
        "geographic_distance_to_AOI00_km": 559.8462073199821,
        "minimum_environmental_distance_to_other_candidates": 4.378376625680468,
        "minimum_geographic_distance_to_other_aois_km": 329.8595673063504,
        "sentinel2_2021_2025_availability": "2021:PARTIAL:33;2022:PARTIAL:47;2023:PARTIAL:62;2024:PARTIAL:33;2025:PARTIAL:40",
        "landsat_2021_2025_availability": "2021:PARTIAL:16;2022:PARTIAL:19;2023:PARTIAL:30;2024:PARTIAL:31;2025:PARTIAL:30",
        "modis_2021_2025_availability": "2021:PARTIAL:22;2022:PARTIAL:22;2023:PARTIAL:22;2024:PARTIAL:22;2025:PARTIAL:8",
        "fcover_2021_2025_availability": "2021:PARTIAL:3;2022:PARTIAL:3;2023:PARTIAL:3;2024:PARTIAL:3;2025:PARTIAL:3"
      },
      "geometry": {
        "type": "Polygon",
        "coordinates": [
          [
            [
              93.31868772186446,
              36.55007239677911
            ],
            [
              93.32383183116784,
              36.55214523747081
            ],
            [
              93.3283325273338,
              36.563349911020644
            ],
            [
              93.35216159798482,
              36.58850803328957
            ],
            [
              93.36450428335795,
              36.58699382602687
            ],
            [
              93.39232825712854,
              36.59171972422374
            ],
            [
              93.4169200800189,
              36.60112106903791
            ],
            [
              93.42859816460312,
              36.605583193150316
            ],
            [
              93.44847611660893,
              36.61207363340033
            ],
            [
              93.4711468312688,
              36.60247604802396
            ],
            [
              93.48325251175842,
              36.593669091644756
            ],
            [
              93.49010669404926,
              36.588681293845504
            ],
            [
              93.51115467570182,
              36.576778385255174
            ],
            [
              93.55674725875366,
              36.57473070754965
            ],
            [
              93.57672697779343,
              36.58310943406724
            ],
            [
              93.59765706077037,
              36.58073562106105
            ],
            [
              93.6208030878877,
              36.55964825186407
            ],
            [
              93.6514394940421,
              36.54940176550779
            ],
            [
              93.68559492078465,
              36.54867209642395
            ],
            [
              93.69660515090784,
              36.549270304816105
            ],
            [
              93.70368794722238,
              36.52954022450709
            ],
            [
              93.68157809996235,
              36.51555961013403
            ],
            [
              93.67501227673218,
              36.5069420646119
            ],
            [
              93.66911207083314,
              36.488369291025315
            ],
            [
              93.67653864697678,
              36.47397856714172
            ],
            [
              93.66949249026227,
              36.41576794712116
            ],
            [
              93.65941975880374,
              36.410944171984376
            ],
            [
              93.62984832918613,
              36.40007814500397
            ],
            [
              93.62483472855513,
              36.395913789585705
            ],
            [
              93.60657110898723,
              36.40581707274987
            ],
            [
              93.56272090926015,
              36.410959267303916
            ],
            [
              93.52528234979535,
              36.40302400349036
            ],
            [
              93.51244091108221,
              36.39734513708661
            ],
            [
              93.49130638061176,
              36.39885532876677
            ],
            [
              93.48571373325001,
              36.41426881635838
            ],
            [
              93.46776019430544,
              36.42725511746538
            ],
            [
              93.44170438850188,
              36.438506752113256
            ],
            [
              93.41940195260572,
              36.4328630244173
            ],
            [
              93.40293628678103,
              36.423154704476936
            ],
            [
              93.37882741380969,
              36.42184762438612
            ],
            [
              93.3590466436783,
              36.42783967463346
            ],
            [
              93.35396609066737,
              36.43773506754741
            ],
            [
              93.33433177171707,
              36.44723329169911
            ],
            [
              93.32223884570952,
              36.44200469299897
            ],
            [
              93.30780044144906,
              36.45964183109551
            ],
            [
              93.32225895013188,
              36.46941456169064
            ],
            [
              93.32275817026755,
              36.5041498643494
            ],
            [
              93.32088185636178,
              36.530358109754474
            ],
            [
              93.31868772186446,
              36.55007239677911
            ]
          ]
        ]
      }
    }
  ]
}