{
  "type": "FeatureCollection",
  "features": [
    {
      "type": "Feature",
      "properties": {
        "aoi_id": "AOI-00",
        "role": "original",
        "area_km2": 583.1314166091697,
        "expected_5km_block_count": 39,
        "geometry_version": "aoi00-immutable-v1",
        "eligibility": true,
        "exclusion_reason": "",
        "selection_status": "ORIGINAL",
        "final_aoi_id": "AOI-00",
        "centroid_lon": 99.5126037664068,
        "centroid_lat": 38.038743681478,
        "elevation_median_m": 3865.489501953125,
        "elevation_iqr_m": 110.48095703125,
        "elevation_range_m": 289.755126953125,
        "slope_median_degrees": 1.6944177150726318,
        "terrain_ruggedness_m": 1.56591796875,
        "dem_items": 2,
        "tree_fraction": 0.0,
        "shrub_fraction": 0.0,
        "grassland_fraction": 0.9496844319775596,
        "cropland_fraction": 0.0,
        "built_fraction": 0.0002990677336853,
        "bare_sparse_fraction": 0.0349187360778813,
        "snow_ice_fraction": 5.1563402359541295e-05,
        "water_fraction": 0.0096217308802904,
        "wetland_fraction": 0.000670324230674,
        "mangrove_fraction": 0.0,
        "moss_lichen_fraction": 0.0047541456975497,
        "vegetation_fraction": 0.9551089019057832,
        "worldcover_items": 1,
        "historical_ndvi_median": 0.7000000000000001,
        "historical_ndvi_iqr": 0.041475,
        "historical_ndvi_years": 4,
        "historical_ndvi_items": 4,
        "environmental_distance_to_AOI00": 0.0,
        "geographic_distance_to_AOI00_km": 1.2021775562272715e-13,
        "minimum_environmental_distance_to_other_candidates": 1.8367363555483969,
        "minimum_geographic_distance_to_other_aois_km": 176.71243652304796,
        "sentinel2_2021_2025_availability": "2021:PARTIAL:32;2022:READY:34;2023:READY:64;2024:READY:32;2025:READY:42",
        "landsat_2021_2025_availability": "2021:PARTIAL:15;2022:READY:20;2023:READY:30;2024:READY:29;2025:READY:30",
        "modis_2021_2025_availability": "2021:PARTIAL:22;2022:READY:22;2023:READY:22;2024:READY:22;2025:READY:8",
        "fcover_2021_2025_availability": "2021:PARTIAL:3;2022:READY:3;2023:READY:3;2024:READY:3;2025:READY:3",
        "source_candidate_id": "AOI-00"
      },
      "geometry": {
        "type": "Polygon",
        "coordinates": [
          [
            [
              99.32755692497923,
              38.08879514923048
            ],
            [
              99.33280671460497,
              38.090867890616025
            ],
            [
              99.33739867334856,
              38.10207001914348
            ],
            [
              99.36171599885606,
              38.12722340862398
            ],
            [
              99.37431342258301,
              38.12571043466963
            ],
            [
              99.40271088763454,
              38.1304367230677
            ],
            [
              99.42780942106211,
              38.13983674143025
            ],
            [
              99.43972825283157,
              38.14429813462071
            ],
            [
              99.4600162182181,
              38.15078746831142
            ],
            [
              99.48315515815824,
              38.14119282252872
            ],
            [
              99.49551077323596,
              38.13238829481119
            ],
            [
              99.50250639619473,
              38.12740184121236
            ],
            [
              99.52398842407233,
              38.11550202932829
            ],
            [
              99.57052092633978,
              38.1134541431031
            ],
            [
              99.59091303076197,
              38.121830045935944
            ],
            [
              99.61227456523129,
              38.119455976614404
            ],
            [
              99.63589595764346,
              38.09837289181187
            ],
            [
              99.66716244715323,
              38.088127076153185
            ],
            [
              99.70202126604723,
              38.08739483705618
            ],
            [
              99.71325835425269,
              38.08799188054587
            ],
            [
              99.72048401146787,
              38.068266262016074
            ],
            [
              99.69791719430569,
              38.05429133275853
            ],
            [
              99.69121516994458,
              38.045676593697735
            ],
            [
              99.68519126807453,
              38.02710914497309
            ],
            [
              99.69276856067631,
              38.0127215536664
            ],
            [
              99.6855702761685,
              37.95452667384872
            ],
            [
              99.67529051242936,
              37.949704948565234
            ],
            [
              99.6451120202546,
              37.93884380045216
            ],
            [
              99.63999532757751,
              37.93468083489816
            ],
            [
              99.62135842828016,
              37.94458255406483
            ],
            [
              99.57661001679296,
              37.949725190129904
            ],
            [
              99.53840407782413,
              37.94179278147506
            ],
            [
              99.52529950257068,
              37.93611550909326
            ],
            [
              99.50373206724666,
              37.93762532675436
            ],
            [
              99.49802469535717,
              37.95303477204951
            ],
            [
              99.47970287578651,
              37.96601749262859
            ],
            [
              99.45311229791417,
              37.977265632609274
            ],
            [
              99.43035269849112,
              37.97162263145757
            ],
            [
              99.41355003777734,
              37.96191613734618
            ],
            [
              99.3889470003647,
              37.960608136011736
            ],
            [
              99.36876006914301,
              37.96659738332567
            ],
            [
              99.36357425304828,
              37.97648985062072
            ],
            [
              99.3435359951972,
              37.98598413453984
            ],
            [
              99.33119561791689,
              37.98075590139941
            ],
            [
              99.31645845040727,
              37.99838716652157
            ],
            [
              99.3312124804353,
              38.00815863466397
            ],
            [
              99.33171733100625,
              38.04288493252576
            ],
            [
              99.32979890764136,
              38.0690861893151
            ],
            [
              99.32755692497923,
              38.08879514923048
            ]
          ]
        ]
      }
    },
    {
      "type": "Feature",
      "properties": {
        "aoi_id": "AOI-01",
        "role": "candidate",
        "centroid_lon": 93.50000133638132,
        "centroid_lat": 36.50000060607925,
        "area_km2": 583.1314165235634,
        "expected_5km_block_count": 39,
        "geometry_version": "translated-aoi00-shape-v1",
        "eligibility": true,
        "exclusion_reason": "",
        "selection_status": "SELECTED",
        "final_aoi_id": "AOI-01",
        "elevation_median_m": 3232.8759765625,
        "elevation_iqr_m": 172.8291015625,
        "elevation_range_m": 425.0283203125,
        "slope_median_degrees": 4.515046119689941,
        "terrain_ruggedness_m": 4.3555908203125,
        "dem_items": 1,
        "tree_fraction": 0.0,
        "shrub_fraction": 9.085586222213247e-05,
        "grassland_fraction": 0.0005451351733327,
        "cropland_fraction": 0.0,
        "built_fraction": 0.0,
        "bare_sparse_fraction": 0.9993640089644452,
        "snow_ice_fraction": 0.0,
        "water_fraction": 0.0,
        "wetland_fraction": 0.0,
        "mangrove_fraction": 0.0,
        "moss_lichen_fraction": 0.0,
        "vegetation_fraction": 0.0006359910355549,
        "worldcover_items": 1,
        "historical_ndvi_median": 0.0609,
        "historical_ndvi_iqr": 0.0022,
        "historical_ndvi_years": 4,
        "historical_ndvi_items": 4,
        "environmental_distance_to_AOI00": 6.279590477492674,
        "geographic_distance_to_AOI00_km": 559.8462073199821,
        "minimum_environmental_distance_to_other_candidates": 4.378376625680468,
        "minimum_geographic_distance_to_other_aois_km": 329.8595673063504,
        "sentinel2_2021_2025_availability": "2021:PARTIAL:33;2022:PARTIAL:47;2023:PARTIAL:62;2024:PARTIAL:33;2025:PARTIAL:40",
        "landsat_2021_2025_availability": "2021:PARTIAL:16;2022:PARTIAL:19;2023:PARTIAL:30;2024:PARTIAL:31;2025:PARTIAL:30",
        "modis_2021_2025_availability": "2021:PARTIAL:22;2022:PARTIAL:22;2023:PARTIAL:22;2024:PARTIAL:22;2025:PARTIAL:8",
        "fcover_2021_2025_availability": "2021:PARTIAL:3;2022:PARTIAL:3;2023:PARTIAL:3;2024:PARTIAL:3;2025:PARTIAL:3",
        "source_candidate_id": "AOI-C10"
      },
      "geometry": {
        "type": "Polygon",
        "coordinates": [
          [
            [
              93.31868772186446,
              36.55007239677911
            ],
            [
              93.32383183116784,
              36.55214523747081
            ],
            [
              93.3283325273338,
              36.563349911020644
            ],
            [
              93.35216159798482,
              36.58850803328957
            ],
            [
              93.36450428335795,
              36.58699382602687
            ],
            [
              93.39232825712854,
              36.59171972422374
            ],
            [
              93.4169200800189,
              36.60112106903791
            ],
            [
              93.42859816460312,
              36.605583193150316
            ],
            [
              93.44847611660893,
              36.61207363340033
            ],
            [
              93.4711468312688,
              36.60247604802396
            ],
            [
              93.48325251175842,
              36.593669091644756
            ],
            [
              93.49010669404926,
              36.588681293845504
            ],
            [
              93.51115467570182,
              36.576778385255174
            ],
            [
              93.55674725875366,
              36.57473070754965
            ],
            [
              93.57672697779343,
              36.58310943406724
            ],
            [
              93.59765706077037,
              36.58073562106105
            ],
            [
              93.6208030878877,
              36.55964825186407
            ],
            [
              93.6514394940421,
              36.54940176550779
            ],
            [
              93.68559492078465,
              36.54867209642395
            ],
            [
              93.69660515090784,
              36.549270304816105
            ],
            [
              93.70368794722238,
              36.52954022450709
            ],
            [
              93.68157809996235,
              36.51555961013403
            ],
            [
              93.67501227673218,
              36.5069420646119
            ],
            [
              93.66911207083314,
              36.488369291025315
            ],
            [
              93.67653864697678,
              36.47397856714172
            ],
            [
              93.66949249026227,
              36.41576794712116
            ],
            [
              93.65941975880374,
              36.410944171984376
            ],
            [
              93.62984832918613,
              36.40007814500397
            ],
            [
              93.62483472855513,
              36.395913789585705
            ],
            [
              93.60657110898723,
              36.40581707274987
            ],
            [
              93.56272090926015,
              36.410959267303916
            ],
            [
              93.52528234979535,
              36.40302400349036
            ],
            [
              93.51244091108221,
              36.39734513708661
            ],
            [
              93.49130638061176,
              36.39885532876677
            ],
            [
              93.48571373325001,
              36.41426881635838
            ],
            [
              93.46776019430544,
              36.42725511746538
            ],
            [
              93.44170438850188,
              36.438506752113256
            ],
            [
              93.41940195260572,
              36.4328630244173
            ],
            [
              93.40293628678103,
              36.423154704476936
            ],
            [
              93.37882741380969,
              36.42184762438612
            ],
            [
              93.3590466436783,
              36.42783967463346
            ],
            [
              93.35396609066737,
              36.43773506754741
            ],
            [
              93.33433177171707,
              36.44723329169911
            ],
            [
              93.32223884570952,
              36.44200469299897
            ],
            [
              93.30780044144906,
              36.45964183109551
            ],
            [
              93.32225895013188,
              36.46941456169064
            ],
            [
              93.32275817026755,
              36.5041498643494
            ],
            [
              93.32088185636178,
              36.530358109754474
            ],
            [
              93.31868772186446,
              36.55007239677911
            ]
          ]
        ]
      }
    },
    {
      "type": "Feature",
      "properties": {
        "aoi_id": "AOI-02",
        "role": "candidate",
        "centroid_lon": 95.60000408531164,
        "centroid_lat": 32.9000019453025,
        "area_km2": 583.1314163289553,
        "expected_5km_block_count": 39,
        "geometry_version": "translated-aoi00-shape-v1",
        "eligibility": true,
        "exclusion_reason": "",
        "selection_status": "SELECTED",
        "final_aoi_id": "AOI-02",
        "elevation_median_m": 4551.08740234375,
        "elevation_iqr_m": 366.47998046875,
        "elevation_range_m": 843.74951171875,
        "slope_median_degrees": 21.26257705688477,
        "terrain_ruggedness_m": 22.752685546875,
        "dem_items": 2,
        "tree_fraction": 1.927933833310841e-05,
        "shrub_fraction": 0.0002409917291638,
        "grassland_fraction": 0.8084308546530683,
        "cropland_fraction": 0.0,
        "built_fraction": 0.0001253156991652,
        "bare_sparse_fraction": 0.094709749561395,
        "snow_ice_fraction": 0.0,
        "water_fraction": 0.0033256858624612,
        "wetland_fraction": 0.0,
        "mangrove_fraction": 0.0,
        "moss_lichen_fraction": 0.0931481231564132,
        "vegetation_fraction": 0.9018392488769784,
        "worldcover_items": 2,
        "historical_ndvi_median": 0.616525,
        "historical_ndvi_iqr": 0.0469875,
        "historical_ndvi_years": 4,
        "historical_ndvi_items": 4,
        "environmental_distance_to_AOI00": 5.834261354552182,
        "geographic_distance_to_AOI00_km": 671.5222542403204,
        "minimum_environmental_distance_to_other_candidates": 1.9722904064176396,
        "minimum_geographic_distance_to_other_aois_km": 116.91383292357023,
        "sentinel2_2021_2025_availability": "2021:PARTIAL:32;2022:PARTIAL:38;2023:PARTIAL:60;2024:PARTIAL:32;2025:PARTIAL:40",
        "landsat_2021_2025_availability": "2021:PARTIAL:10;2022:PARTIAL:15;2023:PARTIAL:20;2024:PARTIAL:19;2025:PARTIAL:19",
        "modis_2021_2025_availability": "2021:PARTIAL:44;2022:PARTIAL:44;2023:PARTIAL:44;2024:PARTIAL:44;2025:PARTIAL:12",
        "fcover_2021_2025_availability": "2021:PARTIAL:3;2022:PARTIAL:3;2023:PARTIAL:3;2024:PARTIAL:3;2025:PARTIAL:3",
        "source_candidate_id": "AOI-C07"
      },
      "geometry": {
        "type": "Polygon",
        "coordinates": [
          [
            [
              95.426390393326,
              32.95011933840662
            ],
            [
              95.43131653167143,
              32.952192438197514
            ],
            [
              95.43562898876026,
              32.963402921639634
            ],
            [
              95.45845100325151,
              32.98857193520801
            ],
            [
              95.47026828371258,
              32.987054990181186
            ],
            [
              95.49690941250346,
              32.991780126134714
            ],
            [
              95.52045612744752,
              33.00118457097333
            ],
            [
              95.53163766333478,
              33.005648389042584
            ],
            [
              95.55066995095052,
              33.01214138861972
            ],
            [
              95.57237494065767,
              33.00253715765773
            ],
            [
              95.5839651251392,
              32.993724693331664
            ],
            [
              95.59052758235639,
              32.988733844832055
            ],
            [
              95.6106803309251,
              32.976823900162
            ],
            [
              95.65433430153202,
              32.9747766394146
            ],
            [
              95.67346346513946,
              32.98316173215963
            ],
            [
              95.6935036655882,
              32.98078843449707
            ],
            [
              95.71566922813933,
              32.95969123940929
            ],
            [
              95.74500605984176,
              32.94944307721837
            ],
            [
              95.7777107129489,
              32.94871903626871
            ],
            [
              95.78825303976578,
              32.94931981410548
            ],
            [
              95.7950411666833,
              32.92957954764017
            ],
            [
              95.77387383121342,
              32.915586175072505
            ],
            [
              95.76758892416876,
              32.90696229777493
            ],
            [
              95.76194383744883,
              32.888377467315344
            ],
            [
              95.76905954648906,
              32.87397958306453
            ],
            [
              95.7623271354194,
              32.81573326494336
            ],
            [
              95.75268141794704,
              32.81090489460487
            ],
            [
              95.7243620858843,
              32.800027942475275
            ],
            [
              95.71956111732042,
              32.795860454160916
            ],
            [
              95.70206741096015,
              32.80576736345306
            ],
            [
              95.66006982354959,
              32.81090868773456
            ],
            [
              95.62421402549015,
              32.80296699978696
            ],
            [
              95.61191532019475,
              32.79728452274841
            ],
            [
              95.5916736800043,
              32.798795565047826
            ],
            [
              95.58631765782847,
              32.814218228659726
            ],
            [
              95.56912371644788,
              32.82721264507884
            ],
            [
              95.54417090440178,
              32.83847217309463
            ],
            [
              95.5228113928842,
              32.83282674014111
            ],
            [
              95.50704079898303,
              32.82311422201631
            ],
            [
              95.48395116723792,
              32.82180913983291
            ],
            [
              95.46500812453542,
              32.82780746196135
            ],
            [
              95.46014467875605,
              32.837709471958874
            ],
            [
              95.44134350142575,
              32.84721653381738
            ],
            [
              95.42976095920291,
              32.84198703070392
            ],
            [
              95.41593876145005,
              32.85963740921707
            ],
            [
              95.42978773724495,
              32.86941310270094
            ],
            [
              95.43027532653107,
              32.90416885892403
            ],
            [
              95.42848585070143,
              32.93039296540087
            ],
            [
              95.426390393326,
              32.95011933840662
            ]
          ]
        ]
      }
    },
    {
      "type": "Feature",
      "properties": {
        "aoi_id": "AOI-03",
        "role": "candidate",
        "centroid_lon": 97.2000019898594,
        "centroid_lat": 35.700000912723965,
        "area_km2": 583.1314164794978,
        "expected_5km_block_count": 39,
        "geometry_version": "translated-aoi00-shape-v1",
        "eligibility": true,
        "exclusion_reason": "",
        "selection_status": "SELECTED",
        "final_aoi_id": "AOI-03",
        "elevation_median_m": 4686.14794921875,
        "elevation_iqr_m": 391.4140625,
        "elevation_range_m": 802.1435546875,
        "slope_median_degrees": 12.240899085998535,
        "terrain_ruggedness_m": 12.059814453125,
        "dem_items": 1,
        "tree_fraction": 0.0,
        "shrub_fraction": 0.0,
        "grassland_fraction": 0.3461726766783569,
        "cropland_fraction": 0.0,
        "built_fraction": 0.0,
        "bare_sparse_fraction": 0.5002447968186405,
        "snow_ice_fraction": 0.000139883896366,
        "water_fraction": 6.99419481830081e-05,
        "wetland_fraction": 0.0,
        "mangrove_fraction": 0.0,
        "moss_lichen_fraction": 0.1533727006584535,
        "vegetation_fraction": 0.4995453773368104,
        "worldcover_items": 1,
        "historical_ndvi_median": 0.2432,
        "historical_ndvi_iqr": 0.0151749999999999,
        "historical_ndvi_years": 4,
        "historical_ndvi_items": 4,
        "environmental_distance_to_AOI00": 5.111880908891579,
        "geographic_distance_to_AOI00_km": 331.4556834513436,
        "minimum_environmental_distance_to_other_candidates": 2.8117044711327055,
        "minimum_geographic_distance_to_other_aois_km": 121.65038019347715,
        "sentinel2_2021_2025_availability": "2021:PARTIAL:32;2022:PARTIAL:36;2023:PARTIAL:62;2024:PARTIAL:31;2025:PARTIAL:40",
        "landsat_2021_2025_availability": "2021:PARTIAL:15;2022:PARTIAL:22;2023:PARTIAL:31;2024:PARTIAL:30;2025:PARTIAL:30",
        "modis_2021_2025_availability": "2021:PARTIAL:22;2022:PARTIAL:22;2023:PARTIAL:22;2024:PARTIAL:22;2025:PARTIAL:8",
        "fcover_2021_2025_availability": "2021:PARTIAL:3;2022:PARTIAL:3;2023:PARTIAL:3;2024:PARTIAL:3;2025:PARTIAL:3",
        "source_candidate_id": "AOI-C09"
      },
      "geometry": {
        "type": "Polygon",
        "coordinates": [
          [
            [
              97.0205198029531,
              35.75008307548164
            ],
            [
              97.02561206776969,
              35.75215597124988
            ],
            [
              97.03006799072972,
              35.76336195567191
            ],
            [
              97.05365753217065,
              35.78852252620057
            ],
            [
              97.06587525015736,
              35.78700769310814
            ],
            [
              97.09341788433082,
              35.79173340588599
            ],
            [
              97.11776112827569,
              35.80113544261581
            ],
            [
              97.12932110877452,
              35.80559794626974
            ],
            [
              97.14899791960468,
              35.812088960486015
            ],
            [
              97.1714389368779,
              35.802489868909284
            ],
            [
              97.1834220067676,
              35.79368166601046
            ],
            [
              97.19020680229669,
              35.78869317802816
            ],
            [
              97.21104185280265,
              35.77678867845158
            ],
            [
              97.2561733368948,
              35.774741100995804
            ],
            [
              97.2759507515234,
              35.78312127223677
            ],
            [
              97.29666917597339,
              35.78074758280032
            ],
            [
              97.31958199900934,
              35.759658001358645
            ],
            [
              97.34990930096929,
              35.7494111520063
            ],
            [
              97.38371966120549,
              35.748682777728035
            ],
            [
              97.39461860059977,
              35.749281575242634
            ],
            [
              97.4016313086085,
              35.7295491966998
            ],
            [
              97.37974563701572,
              35.71556568072376
            ],
            [
              97.37324662925725,
              35.70694669873522
            ],
            [
              97.36740710244996,
              35.6883711944042
            ],
            [
              97.37475973781196,
              35.673978855854564
            ],
            [
              97.36778820181615,
              35.615760156613014
            ],
            [
              97.35781703578327,
              35.61093533584586
            ],
            [
              97.32854341846361,
              35.600066821602425
            ],
            [
              97.32358039242881,
              35.595901755120266
            ],
            [
              97.30549989825188,
              35.60580585068577
            ],
            [
              97.26209034498918,
              35.610947834553386
            ],
            [
              97.22502824734129,
              35.603011111447266
            ],
            [
              97.21231589851165,
              35.59733142739877
            ],
            [
              97.19139374331034,
              35.59884181134661
            ],
            [
              97.18585737750159,
              35.61425737481268
            ],
            [
              97.16808450965618,
              35.627245513131705
            ],
            [
              97.14229105194201,
              35.63849893760711
            ],
            [
              97.12021289177316,
              35.63285483000088
            ],
            [
              97.10391254993485,
              35.623145565924005
            ],
            [
              97.0800461047149,
              35.621838947581566
            ],
            [
              97.06046458864022,
              35.6278324262021
            ],
            [
              97.05543567422716,
              35.63772931859901
            ],
            [
              97.03599951815247,
              35.64722955323831
            ],
            [
              97.02402798769403,
              35.642000757747034
            ],
            [
              97.0097361473388,
              35.659640900726814
            ],
            [
              97.0240496775845,
              35.669414291426385
            ],
            [
              97.02454612914362,
              35.70415421983445
            ],
            [
              97.0226904681744,
              35.73036605367854
            ],
            [
              97.0205198029531,
              35.75008307548164
            ]
          ]
        ]
      }
    }
  ]
}