{"type": "Feature", "properties": {}, "geometry": {"type": "Polygon", "coordinates": [[[99.32755692497923, 38.08879514923048], [99.33280671460497, 38.090867890616025], [99.33739867334856, 38.10207001914348], [99.36171599885606, 38.12722340862398], [99.37431342258301, 38.12571043466963], [99.40271088763454, 38.1304367230677], [99.42780942106211, 38.13983674143025], [99.43972825283157, 38.14429813462071], [99.4600162182181, 38.15078746831142], [99.48315515815824, 38.14119282252872], [99.49551077323596, 38.13238829481119], [99.50250639619473, 38.12740184121236], [99.52398842407233, 38.11550202932829], [99.57052092633978, 38.1134541431031], [99.59091303076197, 38.121830045935944], [99.61227456523129, 38.119455976614404], [99.63589595764346, 38.09837289181187], [99.66716244715323, 38.088127076153185], [99.70202126604723, 38.08739483705618], [99.71325835425269, 38.08799188054587], [99.72048401146787, 38.068266262016074], [99.69791719430569, 38.05429133275853], [99.69121516994458, 38.045676593697735], [99.68519126807453, 38.02710914497309], [99.69276856067631, 38.0127215536664], [99.6855702761685, 37.95452667384872], [99.67529051242936, 37.949704948565234], [99.6451120202546, 37.93884380045216], [99.63999532757751, 37.93468083489816], [99.62135842828016, 37.94458255406483], [99.57661001679296, 37.949725190129904], [99.53840407782413, 37.94179278147506], [99.52529950257068, 37.93611550909326], [99.50373206724666, 37.93762532675436], [99.49802469535717, 37.95303477204951], [99.47970287578651, 37.96601749262859], [99.45311229791417, 37.977265632609274], [99.43035269849112, 37.97162263145757], [99.41355003777734, 37.96191613734618], [99.3889470003647, 37.960608136011736], [99.36876006914301, 37.96659738332567], [99.36357425304828, 37.97648985062072], [99.3435359951972, 37.98598413453984], [99.33119561791689, 37.98075590139941], [99.31645845040727, 37.99838716652157], [99.3312124804353, 38.00815863466397], [99.33171733100625, 38.04288493252576], [99.32979890764136, 38.0690861893151], [99.32755692497923, 38.08879514923048]]]}}